{
    "links": {
        "self": "http://www.neowsapp.com/rest/v1/neo/3273970?api_key=iIulBulltgU6a56xZRHN4H3l9WmuAYTsLGpBGhQ2"
    },
    "id": "3273970",
    "neo_reference_id": "3273970",
    "name": "(2005 ET95)",
    "designation": "2005 ET95",
    "nasa_jpl_url": "http://ssd.jpl.nasa.gov/sbdb.cgi?sstr=3273970",
    "absolute_magnitude_h": 20.7,
    "estimated_diameter": {
        "kilometers": {
            "estimated_diameter_min": 0.1925550782,
            "estimated_diameter_max": 0.4305662442
        },
        "meters": {
            "estimated_diameter_min": 192.5550781879,
            "estimated_diameter_max": 430.566244241
        },
        "miles": {
            "estimated_diameter_min": 0.1196481415,
            "estimated_diameter_max": 0.2675413778
        },
        "feet": {
            "estimated_diameter_min": 631.7424027221,
            "estimated_diameter_max": 1412.6189567557
        }
    },
    "is_potentially_hazardous_asteroid": false,
    "close_approach_data": [
        {
            "close_approach_date": "2005-03-01",
            "close_approach_date_full": "2005-Mar-01 02:07",
            "epoch_date_close_approach": 1109642820000,
            "relative_velocity": {
                "kilometers_per_second": "12.6287814541",
                "kilometers_per_hour": "45463.6132346653",
                "miles_per_hour": "28249.3212346175"
            },
            "miss_distance": {
                "astronomical": "0.3903867169",
                "lunar": "151.8604328741",
                "kilometers": "58401021.324533003",
                "miles": "36288711.9211333214"
            },
            "orbiting_body": "Earth"
        },
        {
            "close_approach_date": "2010-02-26",
            "close_approach_date_full": "2010-Feb-26 15:45",
            "epoch_date_close_approach": 1267199100000,
            "relative_velocity": {
                "kilometers_per_second": "17.3211162707",
                "kilometers_per_hour": "62356.0185746676",
                "miles_per_hour": "38745.6049860205"
            },
            "miss_distance": {
                "astronomical": "0.3702872819",
                "lunar": "144.0417526591",
                "kilometers": "55394188.660329553",
                "miles": "34420352.7405637114"
            },
            "orbiting_body": "Earth"
        }
    ],
    "orbital_data": {
        "orbit_id": "10",
        "orbit_determination_date": "2017-04-06 09:11:18",
        "first_observation_date": "2005-03-10",
        "last_observation_date": "2005-04-03",
        "data_arc_in_days": 24,
        "observations_used": 36,
        "orbit_uncertainty": "7",
        "minimum_orbit_intersection": ".296161",
        "jupiter_tisserand_invariant": "3.782",
        "epoch_osculation": "2459000.5",
        "eccentricity": ".4176274509634598",
        "semi_major_axis": "1.861208261988661",
        "inclination": "24.78943361100641",
        "ascending_node_longitude": "357.3069271326132",
        "orbital_period": "927.4508091391796",
        "perihelion_distance": "1.083916599822205",
        "perihelion_argument": "104.6234665182126",
        "aphelion_distance": "2.638499924155117",
        "perihelion_time": "2458921.002250980192",
        "mean_anomaly": "30.8579057402453",
        "mean_motion": ".3881607482062975",
        "equinox": "J2000",
        "orbit_class": {
            "orbit_class_type": "AMO",
            "orbit_class_description": "Near-Earth asteroid orbits similar to that of 1221 Amor",
            "orbit_class_range": "1.017 AU < q (perihelion) < 1.3 AU"
        }
    },
    "is_sentry_object": false
}